CCSDS_OMM_VERS = 2.0
CREATION_DATE  = 
ORIGINATOR     = 

OBJECT_NAME    = COSMOS 1933
OBJECT_ID      = 1988-020A
CENTER_NAME    = EARTH
REF_FRAME      = TEME
TIME_SYSTEM    = UTC
MEAN_ELEMENT_THEORY = SGP/SGP4

EPOCH          = 2026-01-07T20:52:16.317984
MEAN_MOTION    = 15.17389174
ECCENTRICITY   = .0006174
INCLINATION    = 82.5147
RA_OF_ASC_NODE = 311.0580
ARG_OF_PERICENTER = 62.4592
MEAN_ANOMALY   = 297.7268

EPHEMERIS_TYPE = 0
CLASSIFICATION_TYPE = U
NORAD_CAT_ID   = 18958
ELEMENT_SET_NO = 999
REV_AT_EPOCH   = 4100
BSTAR          = .20927E-3
MEAN_MOTION_DOT = .4211E-4
MEAN_MOTION_DDOT = 0

CCSDS_OMM_VERS = 2.0
CREATION_DATE  = 
ORIGINATOR     = 

OBJECT_NAME    = SL-3 R/B
OBJECT_ID      = 1988-032B
CENTER_NAME    = EARTH
REF_FRAME      = TEME
TIME_SYSTEM    = UTC
MEAN_ELEMENT_THEORY = SGP/SGP4

EPOCH          = 2026-01-07T19:38:05.644896
MEAN_MOTION    = 15.19067472
ECCENTRICITY   = .0028467
INCLINATION    = 97.5113
RA_OF_ASC_NODE = 351.3664
ARG_OF_PERICENTER = 86.4788
MEAN_ANOMALY   = 273.9702

EPHEMERIS_TYPE = 0
CLASSIFICATION_TYPE = U
NORAD_CAT_ID   = 19046
ELEMENT_SET_NO = 999
REV_AT_EPOCH   = 4286
BSTAR          = .26371E-3
MEAN_MOTION_DOT = .5518E-4
MEAN_MOTION_DDOT = 0

CCSDS_OMM_VERS = 2.0
CREATION_DATE  = 
ORIGINATOR     = 

OBJECT_NAME    = SL-16 R/B
OBJECT_ID      = 1988-039B
CENTER_NAME    = EARTH
REF_FRAME      = TEME
TIME_SYSTEM    = UTC
MEAN_ELEMENT_THEORY = SGP/SGP4

EPOCH          = 2026-01-07T19:38:38.360256
MEAN_MOTION    = 14.19603809
ECCENTRICITY   = .0019606
INCLINATION    = 71.0134
RA_OF_ASC_NODE = 197.2578
ARG_OF_PERICENTER = 71.5330
MEAN_ANOMALY   = 288.7924

EPHEMERIS_TYPE = 0
CLASSIFICATION_TYPE = U
NORAD_CAT_ID   = 19120
ELEMENT_SET_NO = 999
REV_AT_EPOCH   = 94974
BSTAR          = .40352E-4
MEAN_MOTION_DOT = .37E-6
MEAN_MOTION_DDOT = 0

CCSDS_OMM_VERS = 2.0
CREATION_DATE  = 
ORIGINATOR     = 

OBJECT_NAME    = COSMOS 1953
OBJECT_ID      = 1988-050A
CENTER_NAME    = EARTH
REF_FRAME      = TEME
TIME_SYSTEM    = UTC
MEAN_ELEMENT_THEORY = SGP/SGP4

EPOCH          = 2026-01-06T20:47:26.642976
MEAN_MOTION    = 15.27279129
ECCENTRICITY   = .0011626
INCLINATION    = 82.5067
RA_OF_ASC_NODE = 220.3632
ARG_OF_PERICENTER = 349.1631
MEAN_ANOMALY   = 10.9355

EPHEMERIS_TYPE = 0
CLASSIFICATION_TYPE = U
NORAD_CAT_ID   = 19210
ELEMENT_SET_NO = 999
REV_AT_EPOCH   = 2834
BSTAR          = .25443E-3
MEAN_MOTION_DOT = .6843E-4
MEAN_MOTION_DDOT = 0

CCSDS_OMM_VERS = 2.0
CREATION_DATE  = 
ORIGINATOR     = 

OBJECT_NAME    = SL-8 R/B
OBJECT_ID      = 1988-053B
CENTER_NAME    = EARTH
REF_FRAME      = TEME
TIME_SYSTEM    = UTC
MEAN_ELEMENT_THEORY = SGP/SGP4

EPOCH          = 2026-01-07T18:06:26.364384
MEAN_MOTION    = 14.38878201
ECCENTRICITY   = .0019111
INCLINATION    = 74.0459
RA_OF_ASC_NODE = 224.7744
ARG_OF_PERICENTER = 59.1474
MEAN_ANOMALY   = 15.1701

EPHEMERIS_TYPE = 0
CLASSIFICATION_TYPE = U
NORAD_CAT_ID   = 19257
ELEMENT_SET_NO = 999
REV_AT_EPOCH   = 96783
BSTAR          = .94604E-4
MEAN_MOTION_DOT = .266E-5
MEAN_MOTION_DDOT = 0

CCSDS_OMM_VERS = 2.0
CREATION_DATE  = 
ORIGINATOR     = 

OBJECT_NAME    = COSMOS 1975
OBJECT_ID      = 1988-093A
CENTER_NAME    = EARTH
REF_FRAME      = TEME
TIME_SYSTEM    = UTC
MEAN_ELEMENT_THEORY = SGP/SGP4

EPOCH          = 2026-01-07T17:40:13.138752
MEAN_MOTION    = 15.26913095
ECCENTRICITY   = .0012269
INCLINATION    = 82.5201
RA_OF_ASC_NODE = 178.7953
ARG_OF_PERICENTER = 29.8915
MEAN_ANOMALY   = 330.3022

EPHEMERIS_TYPE = 0
CLASSIFICATION_TYPE = U
NORAD_CAT_ID   = 19573
ELEMENT_SET_NO = 999
REV_AT_EPOCH   = 1010
BSTAR          = .26457E-3
MEAN_MOTION_DOT = .7038E-4
MEAN_MOTION_DDOT = 0

CCSDS_OMM_VERS = 2.0
CREATION_DATE  = 
ORIGINATOR     = 

OBJECT_NAME    = SL-14 R/B
OBJECT_ID      = 1988-093B
CENTER_NAME    = EARTH
REF_FRAME      = TEME
TIME_SYSTEM    = UTC
MEAN_ELEMENT_THEORY = SGP/SGP4

EPOCH          = 2026-01-07T18:51:34.725312
MEAN_MOTION    = 14.85584761
ECCENTRICITY   = .0019469
INCLINATION    = 82.5316
RA_OF_ASC_NODE = 99.2259
ARG_OF_PERICENTER = 237.3828
MEAN_ANOMALY   = 243.8124

EPHEMERIS_TYPE = 0
CLASSIFICATION_TYPE = U
NORAD_CAT_ID   = 19574
ELEMENT_SET_NO = 999
REV_AT_EPOCH   = 99199
BSTAR          = .68817E-4
MEAN_MOTION_DOT = .621E-5
MEAN_MOTION_DDOT = 0

CCSDS_OMM_VERS = 2.0
CREATION_DATE  = 
ORIGINATOR     = 

OBJECT_NAME    = SL-16 R/B
OBJECT_ID      = 1988-102B
CENTER_NAME    = EARTH
REF_FRAME      = TEME
TIME_SYSTEM    = UTC
MEAN_ELEMENT_THEORY = SGP/SGP4

EPOCH          = 2026-01-07T19:19:56.838144
MEAN_MOTION    = 14.16141410
ECCENTRICITY   = .0011934
INCLINATION    = 70.9999
RA_OF_ASC_NODE = 279.5998
ARG_OF_PERICENTER = 106.4719
MEAN_ANOMALY   = 253.7716

EPHEMERIS_TYPE = 0
CLASSIFICATION_TYPE = U
NORAD_CAT_ID   = 19650
ELEMENT_SET_NO = 999
REV_AT_EPOCH   = 91827
BSTAR          = -.76592E-5
MEAN_MOTION_DOT = -.63E-6
MEAN_MOTION_DDOT = 0

CCSDS_OMM_VERS = 2.0
CREATION_DATE  = 
ORIGINATOR     = 

OBJECT_NAME    = INTERCOSMOS 24
OBJECT_ID      = 1989-080A
CENTER_NAME    = EARTH
REF_FRAME      = TEME
TIME_SYSTEM    = UTC
MEAN_ELEMENT_THEORY = SGP/SGP4

EPOCH          = 2026-01-07T19:13:27.669216
MEAN_MOTION    = 12.59481054
ECCENTRICITY   = .1188965
INCLINATION    = 82.6073
RA_OF_ASC_NODE = 144.0119
ARG_OF_PERICENTER = 74.0922
MEAN_ANOMALY   = 298.7737

EPHEMERIS_TYPE = 0
CLASSIFICATION_TYPE = U
NORAD_CAT_ID   = 20261
ELEMENT_SET_NO = 999
REV_AT_EPOCH   = 65913
BSTAR          = .14886E-3
MEAN_MOTION_DOT = .537E-5
MEAN_MOTION_DDOT = 0

CCSDS_OMM_VERS = 2.0
CREATION_DATE  = 
ORIGINATOR     = 

OBJECT_NAME    = SL-14 R/B
OBJECT_ID      = 1989-080C
CENTER_NAME    = EARTH
REF_FRAME      = TEME
TIME_SYSTEM    = UTC
MEAN_ELEMENT_THEORY = SGP/SGP4

EPOCH          = 2026-01-07T19:49:14.171808
MEAN_MOTION    = 12.50435023
ECCENTRICITY   = .1230013
INCLINATION    = 82.5910
RA_OF_ASC_NODE = 212.2709
ARG_OF_PERICENTER = 323.9682
MEAN_ANOMALY   = 28.4213

EPHEMERIS_TYPE = 0
CLASSIFICATION_TYPE = U
NORAD_CAT_ID   = 20262
ELEMENT_SET_NO = 999
REV_AT_EPOCH   = 65254
BSTAR          = .90277E-4
MEAN_MOTION_DOT = .303E-5
MEAN_MOTION_DDOT = 0

CCSDS_OMM_VERS = 2.0
CREATION_DATE  = 
ORIGINATOR     = 

OBJECT_NAME    = DELTA 1 R/B
OBJECT_ID      = 1989-089B
CENTER_NAME    = EARTH
REF_FRAME      = TEME
TIME_SYSTEM    = UTC
MEAN_ELEMENT_THEORY = SGP/SGP4

EPOCH          = 2026-01-07T20:26:31.302816
MEAN_MOTION    = 14.50599979
ECCENTRICITY   = .0068084
INCLINATION    = 97.0737
RA_OF_ASC_NODE = 224.9496
ARG_OF_PERICENTER = 315.8863
MEAN_ANOMALY   = 43.6916

EPHEMERIS_TYPE = 0
CLASSIFICATION_TYPE = U
NORAD_CAT_ID   = 20323
ELEMENT_SET_NO = 999
REV_AT_EPOCH   = 88691
BSTAR          = .13234E-3
MEAN_MOTION_DOT = .498E-5
MEAN_MOTION_DDOT = 0

CCSDS_OMM_VERS = 2.0
CREATION_DATE  = 
ORIGINATOR     = 

OBJECT_NAME    = ARIANE 40 R/B
OBJECT_ID      = 1990-005H
CENTER_NAME    = EARTH
REF_FRAME      = TEME
TIME_SYSTEM    = UTC
MEAN_ELEMENT_THEORY = SGP/SGP4

EPOCH          = 2026-01-07T17:31:08.668416
MEAN_MOTION    = 14.39821711
ECCENTRICITY   = .001059
INCLINATION    = 98.3203
RA_OF_ASC_NODE = 70.1689
ARG_OF_PERICENTER = 34.2279
MEAN_ANOMALY   = 325.9590

EPHEMERIS_TYPE = 0
CLASSIFICATION_TYPE = U
NORAD_CAT_ID   = 20443
ELEMENT_SET_NO = 999
REV_AT_EPOCH   = 88403
BSTAR          = .12342E-3
MEAN_MOTION_DOT = .345E-5
MEAN_MOTION_DDOT = 0

