COSMOS 1933             
1 18958U 88020A   26007.86963331  .00004211  00000+0  20927-3 0  9993
2 18958  82.5147 311.0580 0006174  62.4592 297.7268 15.17389174 41006
SL-3 R/B                
1 19046U 88032B   26007.81812089  .00005518  00000+0  26371-3 0  9993
2 19046  97.5113 351.3664 0028467  86.4788 273.9702 15.19067472 42866
SL-16 R/B               
1 19120U 88039B   26007.81849954  .00000037  00000+0  40352-4 0  9991
2 19120  71.0134 197.2578 0019606  71.5330 288.7924 14.19603809949745
COSMOS 1953             
1 19210U 88050A   26006.86628059  .00006843  00000+0  25443-3 0  9993
2 19210  82.5067 220.3632 0011626 349.1631  10.9355 15.27279129 28349
SL-8 R/B                
1 19257U 88053B   26007.75447181  .00000266  00000+0  94604-4 0  9990
2 19257  74.0459 224.7744 0019111  59.1474  15.1701 14.38878201967838
COSMOS 1975             
1 19573U 88093A   26007.73626318  .00007038  00000+0  26457-3 0  9998
2 19573  82.5201 178.7953 0012269  29.8915 330.3022 15.26913095 10105
SL-14 R/B               
1 19574U 88093B   26007.78581858  .00000621  00000+0  68817-4 0  9991
2 19574  82.5316  99.2259 0019469 237.3828 243.8124 14.85584761991991
SL-16 R/B               
1 19650U 88102B   26007.80551896 -.00000063  00000+0 -76592-5 0  9991
2 19650  70.9999 279.5998 0011934 106.4719 253.7716 14.16141410918272
INTERCOSMOS 24          
1 20261U 89080A   26007.80101469  .00000537  00000+0  14886-3 0  9994
2 20261  82.6073 144.0119 1188965  74.0922 298.7737 12.59481054659137
SL-14 R/B               
1 20262U 89080C   26007.82585847  .00000303  00000+0  90277-4 0  9993
2 20262  82.5910 212.2709 1230013 323.9682  28.4213 12.50435023652542
DELTA 1 R/B             
1 20323U 89089B   26007.85175119  .00000498  00000+0  13234-3 0  9992
2 20323  97.0737 224.9496 0068084 315.8863  43.6916 14.50599979886910
ARIANE 40 R/B           
1 20443U 90005H   26007.72996144  .00000345  00000+0  12342-3 0  9990
2 20443  98.3203  70.1689 0010590  34.2279 325.9590 14.39821711884036
